NORAD_CAT_ID,OBJECT_NAME,OBJECT_TYPE,EPOCH,MEAN_MOTION,ECCENTRICITY,INCLINATION,RA_OF_ASC_NODE,ARG_OF_PERICENTER,MEAN_ANOMALY,BSTAR,MEAN_MOTION_DOT,MEAN_MOTION_DDOT,TLE_LINE0,TLE_LINE1,TLE_LINE2,SEMIMAJOR_AXIS,PERIOD,APOGEE,PERIGEE,DECAYED
51728.0,STARLINK-3448,PAYLOAD,2023-02-26 22:26:31,15.08850566,0.0001097,53.2127,247.5368,78.4198,281.6918,0.00026254,3.894e-05,0.0,0 STARLINK-3448,1 51728U 22016Q   23057.93508302  .00003894  00000-0  26254-3 0  9997,2 51728  53.2127 247.5368 0001097  78.4198 281.6918 15.08850566 57612,6917.848,95.437,540.472,538.954,0.0
51728.0,STARLINK-3448,PAYLOAD,2023-02-27 22:17:18,15.08854079,0.0001122,53.2127,243.0764,83.3203,276.7916,0.00028772,4.296e-05,0.0,0 STARLINK-3448,1 51728U 22016Q   23058.92868114  .00004296  00000-0  28772-3 0  9991,2 51728  53.2127 243.0764 0001122  83.3203 276.7916 15.08854079 56631,6917.837,95.437,540.479,538.926,0.0
51728.0,STARLINK-3448,PAYLOAD,2023-02-28 04:38:50,15.08830237,0.0001068,53.2136,241.8867,92.1723,267.9391,-0.00029001,-4.899e-05,0.0,0 STARLINK-3448,1 51728U 22016Q   23059.19364544 -.00004899  00000-0 -29001-3 0  9996,2 51728  53.2136 241.8867 0001068  92.1723 267.9391 15.08830237 57804,6917.91,95.438,540.514,539.036,0.0
51728.0,STARLINK-3448,PAYLOAD,2023-02-28 12:35:46,15.08829532,8.44e-05,53.214,240.3998,86.4952,273.6136,-0.00011263,-2.079e-05,0.0,0 STARLINK-3448,1 51728U 22016Q   23059.52484786 -.00002079  00000-0 -11263-3 0  9993,2 51728  53.2140 240.3998 0000844  86.4952 273.6136 15.08829532 56726,6917.912,95.438,540.361,539.194,0.0
51728.0,STARLINK-3448,PAYLOAD,2023-02-28 22:08:05,15.08838918,0.0001046,53.2134,238.616,91.5916,268.5195,0.00035001,5.287e-05,0.0,0 STARLINK-3448,1 51728U 22016Q   23059.92228845  .00005287  00000-0  35001-3 0  9997,2 51728  53.2134 238.6160 0001046  91.5916 268.5195 15.08838918 56784,6917.884,95.438,540.472,539.025,0.0
51728.0,STARLINK-3448,PAYLOAD,2023-03-01 10:51:11,15.08829801,0.0001076,53.2128,236.2373,95.2948,264.8167,0.00026,3.851e-05,0.0,0 STARLINK-3448,1 51728U 22016Q   23060.45221520  .00003851  00000-0  26000-3 0  9994,2 51728  53.2128 236.2373 0001076  95.2948 264.8167 15.08829801 57999,6917.912,95.438,540.521,539.032,0.0
51728.0,STARLINK-3448,PAYLOAD,2023-03-01 18:48:07,15.08831529,0.000106,53.2126,234.7503,95.3804,264.7309,0.00026797,3.979e-05,0.0,0 STARLINK-3448,1 51728U 22016Q   23060.78341720  .00003979  00000-0  26797-3 0  9999,2 51728  53.2126 234.7503 0001060  95.3804 264.7309 15.08831529 56918,6917.906,95.438,540.505,539.038,0.0
51728.0,STARLINK-3448,PAYLOAD,2023-03-02 10:41:58,15.08837993,0.0001353,53.2124,231.776,93.7275,266.3872,0.00033664,5.073e-05,0.0,0 STARLINK-3448,1 51728U 22016Q   23061.44581943  .00005073  00000-0  33664-3 0  9994,2 51728  53.2124 231.7760 0001353  93.7275 266.3872 15.08837993 57013,6917.887,95.438,540.688,538.816,0.0
51728.0,STARLINK-3448,PAYLOAD,2023-03-03 04:11:13,15.08852021,0.0001431,53.2119,228.5039,80.2708,279.8446,0.00054465,8.394e-05,0.0,0 STARLINK-3448,1 51728U 22016Q   23062.17445644  .00008394  00000-0  54465-3 0  9993,2 51728  53.2119 228.5039 0001431  80.2708 279.8446 15.08852021 58251,6917.844,95.437,540.699,538.719,0.0
51728.0,STARLINK-3448,PAYLOAD,2023-03-04 04:01:59,15.08857485,0.0001308,53.2161,224.046,77.2223,282.8915,0.00039217,5.962e-05,0.0,0 STARLINK-3448,1 51728U 22016Q   23063.16804892  .00005962  00000-0  39217-3 0  9993,2 51728  53.2161 224.0460 0001308  77.2223 282.8915 15.08857485 58409,6917.827,95.436,540.597,538.787,0.0
51728.0,STARLINK-3448,PAYLOAD,2023-03-04 10:23:32,15.0886018,0.0002944,53.2088,222.8571,80.6419,279.4906,0.00043769,6.688e-05,0.0,0 STARLINK-3448,1 51728U 22016Q   23063.43301306  .00006688  00000-0  43769-3 0  9998,2 51728  53.2088 222.8571 0002944  80.6419 279.4906 15.08860180 57315,6917.819,95.436,541.72,537.647,0.0
51728.0,STARLINK-3448,PAYLOAD,2023-03-04 19:55:50,15.08844798,0.0001454,53.2112,221.07,90.6074,269.5085,0.00029204,4.364e-05,0.0,0 STARLINK-3448,1 51728U 22016Q   23063.83044925  .00004364  00000-0  29204-3 0  9990,2 51728  53.2112 221.0700 0001454  90.6074 269.5085 15.08844798 58508,6917.866,95.437,540.737,538.725,0.0
51728.0,STARLINK-3448,PAYLOAD,2023-03-05 03:52:47,15.0883583,0.0001809,53.2145,219.5856,81.5712,278.5485,-3.5189e-06,-3.44e-06,0.0,0 STARLINK-3448,1 51728U 22016Q   23064.16165608 -.00000344  00000-0 -35189-5 0  9996,2 51728  53.2145 219.5856 0001809  81.5712 278.5485 15.08835830 58556,6917.893,95.438,541.01,538.507,0.0
51728.0,STARLINK-3448,PAYLOAD,2023-03-05 16:35:52,15.08839833,0.0001561,53.2149,217.206,88.6994,271.4176,0.00010307,1.353e-05,0.0,0 STARLINK-3448,1 51728U 22016Q   23064.69157668  .00001353  00000-0  10307-3 0  9993,2 51728  53.2149 217.2060 0001561  88.6994 271.4176 15.08839833 57507,6917.881,95.438,540.826,538.666,0.0
51728.0,STARLINK-3448,PAYLOAD,2023-03-06 10:05:06,15.08840977,0.0001263,53.215,213.934,93.8395,266.2741,0.00032029,4.813e-05,0.0,0 STARLINK-3448,1 51728U 22016Q   23065.42021911  .00004813  00000-0  32029-3 0  9995,2 51728  53.2150 213.9340 0001263  93.8395 266.2741 15.08840977 58743,6917.877,95.437,540.616,538.869,0.0
51728.0,STARLINK-3448,PAYLOAD,2023-03-07 09:55:54,15.08843571,0.0001308,53.2148,209.4727,97.0826,263.0314,0.00027912,4.158e-05,0.0,0 STARLINK-3448,1 51728U 22016Q   23066.41382001  .00004158  00000-0  27912-3 0  9992,2 51728  53.2148 209.4727 0001308  97.0826 263.0314 15.08843571 58894,6917.869,95.437,540.639,538.83,0.0
51728.0,STARLINK-3448,PAYLOAD,2023-03-07 19:28:12,15.08860368,0.0001454,53.2139,207.6893,94.1479,265.9679,0.00075303,0.00011723,0.0,0 STARLINK-3448,1 51728U 22016Q   23066.81125477  .00011723  00000-0  75303-3 0  9991,2 51728  53.2139 207.6893 0001454  94.1479 265.9679 15.08860368 58957,6917.818,95.436,540.689,538.677,0.0
51728.0,STARLINK-3448,PAYLOAD,2023-03-08 16:08:13,15.08852134,7.21e-05,53.2146,203.8231,99.1557,260.9517,0.00077503,0.00012072,0.0,0 STARLINK-3448,1 51728U 22016Q   23067.67237864  .00012072  00000-0  77503-3 0  9992,2 51728  53.2146 203.8231 0000721  99.1557 260.9517 15.08852134 59080,6917.843,95.437,540.207,539.21,0.0
51728.0,STARLINK-3448,PAYLOAD,2023-03-08 19:18:59,15.08866051,0.0001368,53.214,203.2287,104.1119,256.0025,0.0013435,0.00021174,0.0,0 STARLINK-3448,1 51728U 22016Q   23067.80485571  .00021174  00000-0  13435-2 0  9993,2 51728  53.2140 203.2287 0001368 104.1119 256.0025 15.08866051 57977,6917.801,95.436,540.612,538.719,0.0
51728.0,STARLINK-3448,PAYLOAD,2023-03-09 01:40:32,15.08846149,0.0002426,53.2137,202.0396,78.5806,281.5459,0.002489,0.00039555,0.0,0 STARLINK-3448,1 51728U 22016Q   23068.06982465  .00039555  00000-0  24890-2 0  9995,2 51728  53.2137 202.0396 0002426  78.5806 281.5459 15.08846149 59145,6917.862,95.437,541.405,538.048,0.0
51728.0,STARLINK-3448,PAYLOAD,2023-03-09 17:34:23,15.08872336,0.0001757,53.2171,199.0682,97.1709,262.9483,0.001388,0.00021891,0.0,0 STARLINK-3448,1 51728U 22016Q   23068.73221459  .00021891  00000-0  13880-2 0  9999,2 51728  53.2171 199.0682 0001757  97.1709 262.9483 15.08872336 59249,6917.782,95.436,540.862,538.431,0.0
51728.0,STARLINK-3448,PAYLOAD,2023-03-10 01:31:18,15.08855109,0.0001047,53.2127,197.5774,100.1972,259.9139,0.00067529,0.0001048,0.0,0 STARLINK-3448,1 51728U 22016Q   23069.06341391  .00010480  00000-0  67529-3 0  9996,2 51728  53.2127 197.5774 0001047 100.1972 259.9139 15.08855109 59292,6917.834,95.437,540.424,538.975,0.0
51728.0,STARLINK-3448,PAYLOAD,2023-03-10 17:25:10,15.08845686,0.0002117,53.2145,194.6054,87.4441,272.6793,0.00059698,9.227e-05,0.0,0 STARLINK-3448,1 51728U 22016Q   23069.72581736  .00009227  00000-0  59698-3 0  9993,2 51728  53.2145 194.6054 0002117  87.4441 272.6793 15.08845686 59396,6917.863,95.437,541.193,538.263,0.0
51728.0,STARLINK-3448,PAYLOAD,2023-03-11 01:22:06,15.08834335,0.0002879,53.2147,193.1174,78.4375,281.694,0.00014611,2.037e-05,0.0,0 STARLINK-3448,1 51728U 22016Q   23070.05702290  .00002037  00000-0  14611-3 0  9999,2 51728  53.2147 193.1174 0002879  78.4375 281.6940 15.08834335 59445,6917.898,95.438,541.754,537.771,0.0
51728.0,STARLINK-3448,PAYLOAD,2023-03-11 09:19:02,15.08842577,0.0002089,53.2138,191.6332,75.4804,284.642,0.00058602,9.051e-05,0.0,0 STARLINK-3448,1 51728U 22016Q   23070.38822034  .00009051  00000-0  58602-3 0  9995,2 51728  53.2138 191.6332 0002089  75.4804 284.6420 15.08842577 58364,6917.873,95.437,541.183,538.292,0.0
51728.0,STARLINK-3448,PAYLOAD,2023-03-11 14:05:11,15.08847694,0.0001959,53.2158,190.7423,73.6065,286.5142,0.00046039,7.048e-05,0.0,0 STARLINK-3448,1 51728U 22016Q   23070.58694043  .00007048  00000-0  46039-3 0  9999,2 51728  53.2158 190.7423 0001959  73.6065 286.5142 15.08847694 59527,6917.857,95.437,541.077,538.367,0.0
51728.0,STARLINK-3448,PAYLOAD,2023-03-11 15:40:34,15.08858243,0.0001461,53.2143,190.4416,89.4324,270.6836,0.00063252,9.798e-05,0.0,0 STARLINK-3448,1 51728U 22016Q   23070.65317449  .00009798  00000-0  63252-3 0  9999,2 51728  53.2143 190.4416 0001461  89.4324 270.6836 15.08858243 58403,6917.825,95.436,540.7,538.679,0.0
51728.0,STARLINK-3448,PAYLOAD,2023-03-12 07:34:26,15.08830541,0.0001277,53.2152,187.4691,97.3505,262.7632,5.4758e-05,5.84e-06,0.0,0 STARLINK-3448,1 51728U 22016Q   23071.31558243  .00000584  00000-0  54758-4 0  9998,2 51728  53.2152 187.4691 0001277  97.3505 262.7632 15.08830541 59631,6917.909,95.438,540.658,538.891,0.0
51728.0,STARLINK-3448,PAYLOAD,2023-03-12 13:55:59,15.08833791,0.0001765,53.2146,186.2812,73.9325,286.1861,0.0001459,2.034e-05,0.0,0 STARLINK-3448,1 51728U 22016Q   23071.58054660  .00002034  00000-0  14590-3 0  9992,2 51728  53.2146 186.2812 0001765  73.9325 286.1861 15.08833791 58541,6917.899,95.438,540.985,538.543,0.0
51728.0,STARLINK-3448,PAYLOAD,2023-03-13 07:25:14,15.0883626,0.0001628,53.2146,183.0102,79.518,280.5996,0.00030157,4.514e-05,0.0,0 STARLINK-3448,1 51728U 22016Q   23072.30918999  .00004514  00000-0  30157-3 0  9999,2 51728  53.2146 183.0102 0001628  79.5180 280.5996 15.08836260 58650,6917.892,95.438,540.883,538.631,0.0
